ATLAS CENTAUR 2         
1 00694U 63047A   26078.30248925  .00001729  00000+0  19869-3 0  9999
2 00694  30.3527 141.9185 0547468 165.0043 196.7512 14.12102013132982
THOR AGENA D R/B        
1 00733U 64002A   26078.29042719  .00000167  00000+0  77060-4 0  9999
2 00733  99.1221  92.1512 0032154 229.3880 130.4505 14.34025480239672
SL-3 R/B                
1 00877U 64053B   26078.82012806  .00000116  00000+0  46700-4 0  9998
2 00877  65.0768 301.5371 0080108 289.0284  70.2151 14.61375178268270
SL-8 R/B                
1 02802U 67045B   26078.81689438  .00000266  00000+0  81364-4 0  9993
2 02802  74.0129 329.1780 0064603 333.1447  26.6371 14.45630945 90488
SL-8 R/B                
1 03230U 68040B   26078.69205759  .00002158  00000+0  16125-3 0  9995
2 03230  74.0298 293.2551 0023483 113.2408 247.1256 15.03319964 91510
OAO 2                   
1 03597U 68110A   26078.71725525  .00000199  00000+0  58752-4 0  9996
2 03597  34.9923 209.2351 0006228 278.0677  81.9307 14.47313277 20552
ISIS 1                  
1 03669U 69009A   26078.72068075  .00000127  00000+0  74705-4 0  9992
2 03669  88.4523 154.2144 1707877  68.9274 308.5480 11.30416980349669
SERT 2                  
1 04327U 70009A   26078.86116947 -.00000001  00000+0  55188-4 0  9999
2 04327  99.2773  21.3988 0005419 131.4291 293.6582 13.58730754781279
SL-3 R/B                
1 05118U 71028B   26078.84476631  .00032500  00000+0  37023-3 0  9992
2 05118  81.2375  39.4779 0013537 241.3129 118.6765 15.61976018990256
ASTEX 1                 
1 05560U 71089A   26078.75444183  .00000389  00000+0  98877-4 0  9992
2 05560  92.7106 155.0134 0017396  56.0628 304.2229 14.50779965863760
SL-8 R/B                
1 05730U 71119B   26078.25837994  .00006698  00000+0  35064-3 0  9993
2 05730  73.8876 157.8319 0547489 122.4498 243.0825 14.38067981656869
OAO 3 (COPERNICUS)      
1 06153U 72065A   26078.71211199  .00000291  00000+0  64075-4 0  9996
2 06153  35.0047 240.2128 0007253 245.8074 131.2427 14.60005820847669
