CCSDS_OMM_VERS = 2.0
CREATION_DATE  = 
ORIGINATOR     = 

OBJECT_NAME    = ATLAS CENTAUR 2
OBJECT_ID      = 1963-047A
CENTER_NAME    = EARTH
REF_FRAME      = TEME
TIME_SYSTEM    = UTC
MEAN_ELEMENT_THEORY = SGP/SGP4

EPOCH          = 2026-03-19T07:15:35.071200
MEAN_MOTION    = 14.12102013
ECCENTRICITY   = .05474687
INCLINATION    = 30.3527
RA_OF_ASC_NODE = 141.9185
ARG_OF_PERICENTER = 165.0043
MEAN_ANOMALY   = 196.7512

EPHEMERIS_TYPE = 0
CLASSIFICATION_TYPE = U
NORAD_CAT_ID   = 694
ELEMENT_SET_NO = 999
REV_AT_EPOCH   = 13298
BSTAR          = .19868789E-3
MEAN_MOTION_DOT = .1729E-4
MEAN_MOTION_DDOT = 0

CCSDS_OMM_VERS = 2.0
CREATION_DATE  = 
ORIGINATOR     = 

OBJECT_NAME    = THOR AGENA D R/B
OBJECT_ID      = 1964-002A
CENTER_NAME    = EARTH
REF_FRAME      = TEME
TIME_SYSTEM    = UTC
MEAN_ELEMENT_THEORY = SGP/SGP4

EPOCH          = 2026-03-19T06:58:12.909216
MEAN_MOTION    = 14.34025480
ECCENTRICITY   = .00321548
INCLINATION    = 99.1221
RA_OF_ASC_NODE = 92.1512
ARG_OF_PERICENTER = 229.3880
MEAN_ANOMALY   = 130.4505

EPHEMERIS_TYPE = 0
CLASSIFICATION_TYPE = U
NORAD_CAT_ID   = 733
ELEMENT_SET_NO = 999
REV_AT_EPOCH   = 23967
BSTAR          = .77059809E-4
MEAN_MOTION_DOT = .167E-5
MEAN_MOTION_DDOT = 0

CCSDS_OMM_VERS = 2.0
CREATION_DATE  = 
ORIGINATOR     = 

OBJECT_NAME    = SL-3 R/B
OBJECT_ID      = 1964-053B
CENTER_NAME    = EARTH
REF_FRAME      = TEME
TIME_SYSTEM    = UTC
MEAN_ELEMENT_THEORY = SGP/SGP4

EPOCH          = 2026-03-19T19:40:59.064384
MEAN_MOTION    = 14.61375178
ECCENTRICITY   = .0080108
INCLINATION    = 65.0768
RA_OF_ASC_NODE = 301.5371
ARG_OF_PERICENTER = 289.0284
MEAN_ANOMALY   = 70.2151

EPHEMERIS_TYPE = 0
CLASSIFICATION_TYPE = U
NORAD_CAT_ID   = 877
ELEMENT_SET_NO = 999
REV_AT_EPOCH   = 26827
BSTAR          = .467E-4
MEAN_MOTION_DOT = .116E-5
MEAN_MOTION_DDOT = 0

CCSDS_OMM_VERS = 2.0
CREATION_DATE  = 
ORIGINATOR     = 

OBJECT_NAME    = SL-8 R/B
OBJECT_ID      = 1967-045B
CENTER_NAME    = EARTH
REF_FRAME      = TEME
TIME_SYSTEM    = UTC
MEAN_ELEMENT_THEORY = SGP/SGP4

EPOCH          = 2026-03-19T19:36:19.674432
MEAN_MOTION    = 14.45630945
ECCENTRICITY   = .0064603
INCLINATION    = 74.0129
RA_OF_ASC_NODE = 329.1780
ARG_OF_PERICENTER = 333.1447
MEAN_ANOMALY   = 26.6371

EPHEMERIS_TYPE = 0
CLASSIFICATION_TYPE = U
NORAD_CAT_ID   = 2802
ELEMENT_SET_NO = 999
REV_AT_EPOCH   = 9048
BSTAR          = .81364E-4
MEAN_MOTION_DOT = .266E-5
MEAN_MOTION_DDOT = 0

CCSDS_OMM_VERS = 2.0
CREATION_DATE  = 
ORIGINATOR     = 

OBJECT_NAME    = SL-8 R/B
OBJECT_ID      = 1968-040B
CENTER_NAME    = EARTH
REF_FRAME      = TEME
TIME_SYSTEM    = UTC
MEAN_ELEMENT_THEORY = SGP/SGP4

EPOCH          = 2026-03-19T16:36:33.775776
MEAN_MOTION    = 15.03319964
ECCENTRICITY   = .0023483
INCLINATION    = 74.0298
RA_OF_ASC_NODE = 293.2551
ARG_OF_PERICENTER = 113.2408
MEAN_ANOMALY   = 247.1256

EPHEMERIS_TYPE = 0
CLASSIFICATION_TYPE = U
NORAD_CAT_ID   = 3230
ELEMENT_SET_NO = 999
REV_AT_EPOCH   = 9151
BSTAR          = .16125E-3
MEAN_MOTION_DOT = .2158E-4
MEAN_MOTION_DDOT = 0

CCSDS_OMM_VERS = 2.0
CREATION_DATE  = 
ORIGINATOR     = 

OBJECT_NAME    = OAO 2
OBJECT_ID      = 1968-110A
CENTER_NAME    = EARTH
REF_FRAME      = TEME
TIME_SYSTEM    = UTC
MEAN_ELEMENT_THEORY = SGP/SGP4

EPOCH          = 2026-03-19T17:12:50.853600
MEAN_MOTION    = 14.47313277
ECCENTRICITY   = .0006228
INCLINATION    = 34.9923
RA_OF_ASC_NODE = 209.2351
ARG_OF_PERICENTER = 278.0677
MEAN_ANOMALY   = 81.9307

EPHEMERIS_TYPE = 0
CLASSIFICATION_TYPE = U
NORAD_CAT_ID   = 3597
ELEMENT_SET_NO = 999
REV_AT_EPOCH   = 2055
BSTAR          = .58752E-4
MEAN_MOTION_DOT = .199E-5
MEAN_MOTION_DDOT = 0

CCSDS_OMM_VERS = 2.0
CREATION_DATE  = 
ORIGINATOR     = 

OBJECT_NAME    = ISIS 1
OBJECT_ID      = 1969-009A
CENTER_NAME    = EARTH
REF_FRAME      = TEME
TIME_SYSTEM    = UTC
MEAN_ELEMENT_THEORY = SGP/SGP4

EPOCH          = 2026-03-19T17:17:46.816800
MEAN_MOTION    = 11.30416980
ECCENTRICITY   = .1707877
INCLINATION    = 88.4523
RA_OF_ASC_NODE = 154.2144
ARG_OF_PERICENTER = 68.9274
MEAN_ANOMALY   = 308.5480

EPHEMERIS_TYPE = 0
CLASSIFICATION_TYPE = U
NORAD_CAT_ID   = 3669
ELEMENT_SET_NO = 999
REV_AT_EPOCH   = 34966
BSTAR          = .74705E-4
MEAN_MOTION_DOT = .127E-5
MEAN_MOTION_DDOT = 0

CCSDS_OMM_VERS = 2.0
CREATION_DATE  = 
ORIGINATOR     = 

OBJECT_NAME    = SERT 2
OBJECT_ID      = 1970-009A
CENTER_NAME    = EARTH
REF_FRAME      = TEME
TIME_SYSTEM    = UTC
MEAN_ELEMENT_THEORY = SGP/SGP4

EPOCH          = 2026-03-19T20:40:05.042208
MEAN_MOTION    = 13.58730754
ECCENTRICITY   = .0005419
INCLINATION    = 99.2773
RA_OF_ASC_NODE = 21.3988
ARG_OF_PERICENTER = 131.4291
MEAN_ANOMALY   = 293.6582

EPHEMERIS_TYPE = 0
CLASSIFICATION_TYPE = U
NORAD_CAT_ID   = 4327
ELEMENT_SET_NO = 999
REV_AT_EPOCH   = 78127
BSTAR          = .55188E-4
MEAN_MOTION_DOT = -.1E-7
MEAN_MOTION_DDOT = 0

CCSDS_OMM_VERS = 2.0
CREATION_DATE  = 
ORIGINATOR     = 

OBJECT_NAME    = SL-3 R/B
OBJECT_ID      = 1971-028B
CENTER_NAME    = EARTH
REF_FRAME      = TEME
TIME_SYSTEM    = UTC
MEAN_ELEMENT_THEORY = SGP/SGP4

EPOCH          = 2026-03-19T20:16:27.809184
MEAN_MOTION    = 15.61976018
ECCENTRICITY   = .0013537
INCLINATION    = 81.2375
RA_OF_ASC_NODE = 39.4779
ARG_OF_PERICENTER = 241.3129
MEAN_ANOMALY   = 118.6765

EPHEMERIS_TYPE = 0
CLASSIFICATION_TYPE = U
NORAD_CAT_ID   = 5118
ELEMENT_SET_NO = 999
REV_AT_EPOCH   = 99025
BSTAR          = .37023E-3
MEAN_MOTION_DOT = .325E-3
MEAN_MOTION_DDOT = 0

CCSDS_OMM_VERS = 2.0
CREATION_DATE  = 
ORIGINATOR     = 

OBJECT_NAME    = ASTEX 1
OBJECT_ID      = 1971-089A
CENTER_NAME    = EARTH
REF_FRAME      = TEME
TIME_SYSTEM    = UTC
MEAN_ELEMENT_THEORY = SGP/SGP4

EPOCH          = 2026-03-19T18:06:23.774112
MEAN_MOTION    = 14.50779965
ECCENTRICITY   = .0017396
INCLINATION    = 92.7106
RA_OF_ASC_NODE = 155.0134
ARG_OF_PERICENTER = 56.0628
MEAN_ANOMALY   = 304.2229

EPHEMERIS_TYPE = 0
CLASSIFICATION_TYPE = U
NORAD_CAT_ID   = 5560
ELEMENT_SET_NO = 999
REV_AT_EPOCH   = 86376
BSTAR          = .98877E-4
MEAN_MOTION_DOT = .389E-5
MEAN_MOTION_DDOT = 0

CCSDS_OMM_VERS = 2.0
CREATION_DATE  = 
ORIGINATOR     = 

OBJECT_NAME    = SL-8 R/B
OBJECT_ID      = 1971-119B
CENTER_NAME    = EARTH
REF_FRAME      = TEME
TIME_SYSTEM    = UTC
MEAN_ELEMENT_THEORY = SGP/SGP4

EPOCH          = 2026-03-19T06:12:04.026816
MEAN_MOTION    = 14.38067981
ECCENTRICITY   = .05474898
INCLINATION    = 73.8876
RA_OF_ASC_NODE = 157.8319
ARG_OF_PERICENTER = 122.4498
MEAN_ANOMALY   = 243.0825

EPHEMERIS_TYPE = 0
CLASSIFICATION_TYPE = U
NORAD_CAT_ID   = 5730
ELEMENT_SET_NO = 999
REV_AT_EPOCH   = 65686
BSTAR          = .3506406E-3
MEAN_MOTION_DOT = .6698E-4
MEAN_MOTION_DDOT = 0

CCSDS_OMM_VERS = 2.0
CREATION_DATE  = 
ORIGINATOR     = 

OBJECT_NAME    = OAO 3 (COPERNICUS)
OBJECT_ID      = 1972-065A
CENTER_NAME    = EARTH
REF_FRAME      = TEME
TIME_SYSTEM    = UTC
MEAN_ELEMENT_THEORY = SGP/SGP4

EPOCH          = 2026-03-19T17:05:26.475936
MEAN_MOTION    = 14.60005820
ECCENTRICITY   = .0007253
INCLINATION    = 35.0047
RA_OF_ASC_NODE = 240.2128
ARG_OF_PERICENTER = 245.8074
MEAN_ANOMALY   = 131.2427

EPHEMERIS_TYPE = 0
CLASSIFICATION_TYPE = U
NORAD_CAT_ID   = 6153
ELEMENT_SET_NO = 999
REV_AT_EPOCH   = 84766
BSTAR          = .64075E-4
MEAN_MOTION_DOT = .291E-5
MEAN_MOTION_DDOT = 0

